{"fetched_at":"2026-07-16T06:42:43.777Z","source":"https://celestrak.org/NORAD/elements/gp.php?GROUP=stations&FORMAT=JSON","constellation":"tiangong","records":[{"OBJECT_NAME":"CSS (TIANHE)","OBJECT_ID":"2021-035A","EPOCH":"2026-07-15T12:51:01.431072","CLASSIFICATION_TYPE":"U","MEAN_MOTION":15.58093729,"ECCENTRICITY":0.0002229,"INCLINATION":41.469,"RA_OF_ASC_NODE":149.7716,"ARG_OF_PERICENTER":300.3824,"MEAN_ANOMALY":59.6794,"EPHEMERIS_TYPE":0,"NORAD_CAT_ID":48274,"ELEMENT_SET_NO":999,"REV_AT_EPOCH":29759,"BSTAR":0.000020014,"MEAN_MOTION_DOT":0.00001219,"MEAN_MOTION_DDOT":0}]}
